{"type":"FeatureCollection","features":[{"type":"Feature","geometry":{"type":"MultiPolygon","coordinates":[[[[141,-2.6],[138.33,-1.703],[136.293,-2.307],[135.458,-3.368],[134.423,-2.769],[133.986,-0.78],[132.38,-0.37],[131.99,-2.821],[135.165,-4.463],[137.928,-5.393],[138.669,-7.32],[141.034,-9.118],[141,-2.6]]],[[[117.882,4.138],[115.866,4.307],[114.621,1.431],[112.86,1.498],[110.514,0.773],[109.663,2.006],[109.069,1.342],[109.092,-0.46],[110.071,-1.593],[110.224,-2.934],[113.257,-3.119],[114.865,-4.107],[116.001,-3.657],[116.56,-1.488],[117.522,-0.804],[118.048,2.288],[117.882,4.138]]],[[[122.928,0.875],[120.886,1.309],[120.036,0.566],[118.768,-2.802],[119.499,-3.494],[119.367,-5.38],[120.431,-5.528],[120.305,-2.932],[122.629,-5.635],[123.171,-4.684],[121.508,-1.904],[120.041,-0.52],[120.183,0.237],[122.928,0.875]]],[[[108.487,-6.422],[106.052,-5.896],[105.365,-6.851],[108.278,-7.767],[113.465,-8.349],[112.615,-6.946],[108.487,-6.422]]],[[[104.37,-1.085],[101.658,2.084],[100.641,2.099],[97.485,5.246],[95.381,4.971],[98.601,1.824],[102.584,-4.22],[104.71,-5.873],[105.818,-5.852],[106.109,-3.062],[104.888,-2.34],[104.37,-1.085]]]]},"properties":{"shapeName":"Indonesia","shapeISO":"IDN"}},{"type":"Feature","geometry":{"type":"Polygon","coordinates":[[[102.585,12.187],[103.497,10.633],[104.334,10.487],[107.491,12.337],[107.383,14.202],[105.219,14.273],[102.988,14.226],[102.585,12.187]]]},"properties":{"shapeName":"Cambodia","shapeISO":"KHM"}},{"type":"Feature","geometry":{"type":"Polygon","coordinates":[[[107.383,14.202],[107.565,15.202],[105.095,18.667],[104.435,20.759],[103.204,20.767],[102.17,22.465],[101.18,21.437],[100.116,20.418],[102.114,18.109],[103.956,18.241],[105.589,15.57],[105.219,14.273],[107.383,14.202]]]},"properties":{"shapeName":"Laos","shapeISO":"LAO"}},{"type":"Feature","geometry":{"type":"Polygon","coordinates":[[[100.116,20.418],[101.18,21.437],[99.241,22.118],[98.66,24.063],[97.725,25.084],[98.672,25.919],[98.683,27.509],[97.327,28.262],[95.125,26.574],[94.107,23.851],[92.673,22.041],[92.369,20.671],[94.325,18.214],[94.189,16.038],[95.369,15.714],[97.165,16.929],[97.597,16.101],[98.765,11.441],[98.554,9.933],[99.587,11.893],[98.431,14.622],[98.903,16.178],[97.859,17.568],[98.254,19.708],[100.116,20.418]]]},"properties":{"shapeName":"Myanmar","shapeISO":"MMR"}},{"type":"Feature","geometry":{"type":"Polygon","coordinates":[[[104.334,10.487],[105.158,8.6],[109.2,11.667],[109.335,13.426],[108.877,15.277],[107.362,16.697],[105.662,19.058],[106.715,20.697],[108.05,21.552],[105.329,23.352],[102.17,22.465],[103.204,20.767],[104.435,20.759],[105.095,18.667],[107.565,15.202],[107.383,14.202],[107.491,12.337],[104.334,10.487]]]},"properties":{"shapeName":"Vietnam","shapeISO":"VNM"}},{"type":"Feature","geometry":{"type":"Polygon","coordinates":[[[97.327,28.262],[96.118,29.453],[94.566,29.277],[91.697,27.772],[89.745,26.719],[88.814,27.299],[88.12,27.877],[88.06,26.415],[85.252,26.726],[80.088,28.794],[81.111,30.183],[78.739,31.516],[78.912,34.322],[77.837,35.494],[76.872,34.654],[74.24,34.749],[74.421,30.98],[71.778,27.913],[70.616,27.989],[70.169,26.492],[71.043,24.357],[68.843,24.359],[68.177,23.692],[70.47,20.877],[72.631,21.356],[72.821,19.208],[73.534,15.991],[74.444,14.617],[74.865,12.742],[76.593,8.899],[77.54,7.966],[79.858,10.357],[80.286,13.006],[80.325,15.899],[83.941,18.302],[86.499,20.152],[86.976,21.496],[89.032,22.056],[88.084,24.502],[89.921,25.27],[91.915,24.13],[92.673,22.041],[94.107,23.851],[95.125,26.574],[97.327,28.262]]]},"properties":{"shapeName":"India","shapeISO":"IND"}},{"type":"Feature","geometry":{"type":"Polygon","coordinates":[[[92.673,22.041],[91.915,24.13],[89.921,25.27],[88.084,24.502],[89.032,22.056],[90.273,21.836],[91.417,22.765],[92.369,20.671],[92.673,22.041]]]},"properties":{"shapeName":"Bangladesh","shapeISO":"BGD"}},{"type":"Feature","geometry":{"type":"Polygon","coordinates":[[[80.26,42.35],[78.187,41.185],[73.822,39.894],[73.675,39.431],[74.98,37.42],[75.158,37.133],[76.193,35.898],[77.837,35.494],[78.912,34.322],[78.739,31.516],[81.111,30.183],[82.328,30.115],[85.823,28.204],[88.12,27.877],[88.814,27.299],[90.016,28.296],[91.697,27.772],[94.566,29.277],[96.118,29.453],[97.327,28.262],[98.683,27.509],[98.672,25.919],[97.725,25.084],[98.66,24.063],[99.241,22.118],[101.18,21.437],[102.17,22.465],[105.329,23.352],[108.05,21.552],[111.844,21.55],[115.891,22.783],[118.657,24.547],[122.092,29.833],[121.908,31.692],[120.228,34.36],[119.151,34.91],[122.358,37.454],[120.823,37.87],[119.703,37.156],[117.533,38.738],[121.377,39.75],[122.131,39.17],[124.266,39.928],[126.869,41.817],[130.64,42.395],[131.025,44.968],[133.097,45.144],[135.026,48.478],[130.987,47.79],[129.398,49.441],[127.657,49.76],[125.946,52.793],[123.571,53.459],[121.003,53.251],[120.738,51.964],[117.879,49.511],[116.679,49.889],[115.485,48.135],[118.064,48.067],[117.422,46.673],[109.244,42.519],[104.965,41.597],[101.833,42.515],[96.349,42.726],[95.307,44.241],[90.946,45.286],[90.971,46.888],[87.751,49.297],[87.36,49.215],[85.768,48.456],[85.164,47.001],[83.18,47.33],[82.459,45.54],[79.966,44.918],[80.866,43.18],[80.26,42.35]]]},"properties":{"shapeName":"China","shapeISO":"CHN"}},{"type":"Feature","geometry":{"type":"MultiPolygon","coordinates":[[[[126.377,8.415],[126.223,9.286],[123.488,8.693],[123.296,7.419],[124.22,6.161],[126.537,7.189],[126.377,8.415]]],[[[122.337,18.225],[120.716,18.505],[120.07,14.971],[121.729,14.328],[121.663,15.931],[122.516,17.094],[122.337,18.225]]]]},"properties":{"shapeName":"Philippines","shapeISO":"PHL"}},{"type":"Feature","geometry":{"type":"MultiPolygon","coordinates":[[[[100.086,6.464],[100.197,5.312],[101.391,2.761],[103.52,1.226],[103.381,4.855],[102.141,6.222],[100.086,6.464]]],[[[117.882,4.138],[119.182,5.408],[116.725,6.925],[115.451,5.448],[115.347,4.317],[114.204,4.526],[112.996,3.102],[109.663,2.006],[110.514,0.773],[112.86,1.498],[114.621,1.431],[115.866,4.307],[117.882,4.138]]]]},"properties":{"shapeName":"Malaysia","shapeISO":"MYS"}},{"type":"Feature","geometry":{"type":"Polygon","coordinates":[[[115.451,5.448],[114.204,4.526],[115.347,4.317],[115.451,5.448]]]},"properties":{"shapeName":"Brunei","shapeISO":"BRN"}}],"name":"Thailand regional country context from Natural Earth Admin 0 countries","properties":{"source":"Natural Earth 1:110m Admin 0 Countries, version 5.1.1, public domain","sourceUrl":"https://www.naturalearthdata.com/downloads/110m-cultural-vectors/110m-admin-0-countries/","countries":["IDN","KHM","LAO","MMR","VNM","IND","BGD","CHN","PHL","MYS","BRN"],"purpose":"Non-interactive low-emphasis regional context underlay for the Kaset Tan Phai prototype map"}}